[{"OBJECT_NAME":"ONEWEB-0116","OBJECT_ID":"2021-025E","EPOCH":"2026-06-17T03:02:19.455648","MEAN_MOTION":13.13472894,"ECCENTRICITY":0.0001581,"INCLINATION":87.8962,"RA_OF_ASC_NODE":320.229,"ARG_OF_PERICENTER":95.1596,"MEAN_ANOMALY":264.9713,"EPHEMERIS_TYPE":0,"CLASSIFICATION_TYPE":"U","NORAD_CAT_ID":48046,"ELEMENT_SET_NO":999,"REV_AT_EPOCH":25364,"BSTAR":-0.0024121,"MEAN_MOTION_DOT":-8.68e-06,"MEAN_MOTION_DDOT":0.0},{"OBJECT_NAME":"ONEWEB-0150","OBJECT_ID":"2021-025F","EPOCH":"2026-06-17T04:17:54.756672","MEAN_MOTION":13.1347,"ECCENTRICITY":0.0002017,"INCLINATION":87.8961,"RA_OF_ASC_NODE":320.2162,"ARG_OF_PERICENTER":94.2184,"MEAN_ANOMALY":265.9176,"EPHEMERIS_TYPE":0,"CLASSIFICATION_TYPE":"U","NORAD_CAT_ID":48047,"ELEMENT_SET_NO":999,"REV_AT_EPOCH":25354,"BSTAR":0.00082246,"MEAN_MOTION_DOT":3.13e-06,"MEAN_MOTION_DDOT":0.0},{"OBJECT_NAME":"ONEWEB-0107","OBJECT_ID":"2021-025G","EPOCH":"2026-06-16T22:51:15.793632","MEAN_MOTION":13.13469935,"ECCENTRICITY":0.0002007,"INCLINATION":87.8962,"RA_OF_ASC_NODE":320.2573,"ARG_OF_PERICENTER":102.4723,"MEAN_ANOMALY":257.663,"EPHEMERIS_TYPE":0,"CLASSIFICATION_TYPE":"U","NORAD_CAT_ID":48048,"ELEMENT_SET_NO":999,"REV_AT_EPOCH":25349,"BSTAR":0.00079016,"MEAN_MOTION_DOT":3.01e-06,"MEAN_MOTION_DDOT":0.0},{"OBJECT_NAME":"ONEWEB-0101","OBJECT_ID":"2021-025H","EPOCH":"2026-06-17T03:26:42.224064","MEAN_MOTION":13.13471218,"ECCENTRICITY":0.00018,"INCLINATION":87.8951,"RA_OF_ASC_NODE":320.2346,"ARG_OF_PERICENTER":101.8261,"MEAN_ANOMALY":258.307,"EPHEMERIS_TYPE":0,"CLASSIFICATION_TYPE":"U","NORAD_CAT_ID":48049,"ELEMENT_SET_NO":999,"REV_AT_EPOCH":25349,"BSTAR":-0.0007476399999999999,"MEAN_MOTION_DOT":-2.6e-06,"MEAN_MOTION_DDOT":0.0},{"OBJECT_NAME":"ONEWEB-0113","OBJECT_ID":"2021-025J","EPOCH":"2026-06-17T04:01:48.141120","MEAN_MOTION":13.13893772,"ECCENTRICITY":0.0001851,"INCLINATION":87.8957,"RA_OF_ASC_NODE":320.1403,"ARG_OF_PERICENTER":93.6188,"MEAN_ANOMALY":266.5153,"EPHEMERIS_TYPE":0,"CLASSIFICATION_TYPE":"U","NORAD_CAT_ID":48050,"ELEMENT_SET_NO":999,"REV_AT_EPOCH":25360,"BSTAR":0.00017394,"MEAN_MOTION_DOT":7.7e-07,"MEAN_MOTION_DDOT":0.0},{"OBJECT_NAME":"ONEWEB-0112","OBJECT_ID":"2021-025K","EPOCH":"2026-06-17T04:27:39.720960","MEAN_MOTION":13.13469636,"ECCENTRICITY":0.0001816,"INCLINATION":87.8962,"RA_OF_ASC_NODE":320.2087,"ARG_OF_PERICENTER":104.7871,"MEAN_ANOMALY":255.3459,"EPHEMERIS_TYPE":0,"CLASSIFICATION_TYPE":"U","NORAD_CAT_ID":48051,"ELEMENT_SET_NO":999,"REV_AT_EPOCH":25359,"BSTAR":0.00056158,"MEAN_MOTION_DOT":2.18e-06,"MEAN_MOTION_DDOT":0.0},{"OBJECT_NAME":"ONEWEB-0156","OBJECT_ID":"2021-025L","EPOCH":"2026-06-17T02:50:08.846016","MEAN_MOTION":13.13469708,"ECCENTRICITY":0.0001961,"INCLINATION":87.8961,"RA_OF_ASC_NODE":320.2322,"ARG_OF_PERICENTER":97.8659,"MEAN_ANOMALY":262.2693,"EPHEMERIS_TYPE":0,"CLASSIFICATION_TYPE":"U","NORAD_CAT_ID":48052,"ELEMENT_SET_NO":999,"REV_AT_EPOCH":25356,"BSTAR":0.00016202,"MEAN_MOTION_DOT":7.2e-07,"MEAN_MOTION_DDOT":0.0},{"OBJECT_NAME":"ONEWEB-0161","OBJECT_ID":"2021-025M","EPOCH":"2026-06-17T04:03:16.617312","MEAN_MOTION":13.13471192,"ECCENTRICITY":0.000199,"INCLINATION":87.896,"RA_OF_ASC_NODE":320.2235,"ARG_OF_PERICENTER":99.7032,"MEAN_ANOMALY":260.4322,"EPHEMERIS_TYPE":0,"CLASSIFICATION_TYPE":"U","NORAD_CAT_ID":48053,"ELEMENT_SET_NO":999,"REV_AT_EPOCH":25350,"BSTAR":0.00055305,"MEAN_MOTION_DOT":2.15e-06,"MEAN_MOTION_DDOT":0.0},{"OBJECT_NAME":"ONEWEB-0158","OBJECT_ID":"2021-025N","EPOCH":"2026-06-17T03:04:46.593120","MEAN_MOTION":13.13470844,"ECCENTRICITY":0.0001592,"INCLINATION":87.8962,"RA_OF_ASC_NODE":320.2285,"ARG_OF_PERICENTER":95.4604,"MEAN_ANOMALY":264.6706,"EPHEMERIS_TYPE":0,"CLASSIFICATION_TYPE":"U","NORAD_CAT_ID":48054,"ELEMENT_SET_NO":999,"REV_AT_EPOCH":25362,"BSTAR":-0.00042212,"MEAN_MOTION_DOT":-1.41e-06,"MEAN_MOTION_DDOT":0.0},{"OBJECT_NAME":"ONEWEB-0157","OBJECT_ID":"2021-025P","EPOCH":"2026-06-17T03:41:20.908608","MEAN_MOTION":13.13469932,"ECCENTRICITY":0.0002089,"INCLINATION":87.8957,"RA_OF_ASC_NODE":320.2293,"ARG_OF_PERICENTER":106.3433,"MEAN_ANOMALY":253.7926,"EPHEMERIS_TYPE":0,"CLASSIFICATION_TYPE":"U","NORAD_CAT_ID":48055,"ELEMENT_SET_NO":999,"REV_AT_EPOCH":25356,"BSTAR":-0.0004890200000000001,"MEAN_MOTION_DOT":-1.66e-06,"MEAN_MOTION_DDOT":0.0},{"OBJECT_NAME":"ONEWEB-0162","OBJECT_ID":"2021-025Q","EPOCH":"2026-06-17T03:07:00.842304","MEAN_MOTION":13.1346965,"ECCENTRICITY":0.0001971,"INCLINATION":87.8958,"RA_OF_ASC_NODE":320.2347,"ARG_OF_PERICENTER":94.0561,"MEAN_ANOMALY":266.0793,"EPHEMERIS_TYPE":0,"CLASSIFICATION_TYPE":"U","NORAD_CAT_ID":48056,"ELEMENT_SET_NO":999,"REV_AT_EPOCH":25353,"BSTAR":-0.0004821,"MEAN_MOTION_DOT":-1.63e-06,"MEAN_MOTION_DDOT":0.0},{"OBJECT_NAME":"ONEWEB-0155","OBJECT_ID":"2021-025R","EPOCH":"2026-06-17T03:16:57.315936","MEAN_MOTION":13.13469943,"ECCENTRICITY":0.0001832,"INCLINATION":87.8958,"RA_OF_ASC_NODE":320.2295,"ARG_OF_PERICENTER":102.336,"MEAN_ANOMALY":257.7974,"EPHEMERIS_TYPE":0,"CLASSIFICATION_TYPE":"U","NORAD_CAT_ID":48057,"ELEMENT_SET_NO":999,"REV_AT_EPOCH":25367,"BSTAR":-0.0009238,"MEAN_MOTION_DOT":-3.25e-06,"MEAN_MOTION_DDOT":0.0},{"OBJECT_NAME":"ONEWEB-0149","OBJECT_ID":"2021-025S","EPOCH":"2026-06-17T03:48:39.445632","MEAN_MOTION":13.13470755,"ECCENTRICITY":0.0002027,"INCLINATION":87.8961,"RA_OF_ASC_NODE":320.2288,"ARG_OF_PERICENTER":93.73,"MEAN_ANOMALY":266.4061,"EPHEMERIS_TYPE":0,"CLASSIFICATION_TYPE":"U","NORAD_CAT_ID":48058,"ELEMENT_SET_NO":999,"REV_AT_EPOCH":25348,"BSTAR":-0.0001903,"MEAN_MOTION_DOT":-5.7e-07,"MEAN_MOTION_DDOT":0.0},{"OBJECT_NAME":"ONEWEB-0148","OBJECT_ID":"2021-025T","EPOCH":"2026-06-17T02:55:01.417152","MEAN_MOTION":13.13469604,"ECCENTRICITY":0.0002415,"INCLINATION":87.8954,"RA_OF_ASC_NODE":320.2431,"ARG_OF_PERICENTER":92.6875,"MEAN_ANOMALY":267.4531,"EPHEMERIS_TYPE":0,"CLASSIFICATION_TYPE":"U","NORAD_CAT_ID":48059,"ELEMENT_SET_NO":999,"REV_AT_EPOCH":25360,"BSTAR":8.0216e-05,"MEAN_MOTION_DOT":4.2e-07,"MEAN_MOTION_DDOT":0.0},{"OBJECT_NAME":"ONEWEB-0160","OBJECT_ID":"2021-025U","EPOCH":"2026-06-17T03:19:23.249856","MEAN_MOTION":13.13470536,"ECCENTRICITY":0.0001413,"INCLINATION":87.8953,"RA_OF_ASC_NODE":320.2356,"ARG_OF_PERICENTER":75.3683,"MEAN_ANOMALY":284.7603,"EPHEMERIS_TYPE":0,"CLASSIFICATION_TYPE":"U","NORAD_CAT_ID":48060,"ELEMENT_SET_NO":999,"REV_AT_EPOCH":25355,"BSTAR":-0.0008666,"MEAN_MOTION_DOT":-3.04e-06,"MEAN_MOTION_DDOT":0.0},{"OBJECT_NAME":"ONEWEB-0163","OBJECT_ID":"2021-025V","EPOCH":"2026-06-17T02:57:26.908704","MEAN_MOTION":13.13469981,"ECCENTRICITY":0.0001994,"INCLINATION":87.8961,"RA_OF_ASC_NODE":320.2332,"ARG_OF_PERICENTER":103.9743,"MEAN_ANOMALY":256.1608,"EPHEMERIS_TYPE":0,"CLASSIFICATION_TYPE":"U","NORAD_CAT_ID":48061,"ELEMENT_SET_NO":999,"REV_AT_EPOCH":25367,"BSTAR":-0.00027184,"MEAN_MOTION_DOT":-8.7e-07,"MEAN_MOTION_DDOT":0.0}]