ONEWEB-0116             
1 48046U 21025E   26168.12661407 -.00000868  00000+0 -24121-2 0  9997
2 48046  87.8962 320.2290 0001581  95.1596 264.9713 13.13472894253646
ONEWEB-0150             
1 48047U 21025F   26168.17910598  .00000313  00000+0  82246-3 0  9997
2 48047  87.8961 320.2162 0002017  94.2184 265.9176 13.13470000253542
ONEWEB-0107             
1 48048U 21025G   26167.95226613  .00000301  00000+0  79016-3 0  9999
2 48048  87.8962 320.2573 0002007 102.4723 257.6630 13.13469935253492
ONEWEB-0101             
1 48049U 21025H   26168.14354426 -.00000260  00000+0 -74764-3 0  9997
2 48049  87.8951 320.2346 0001800 101.8261 258.3070 13.13471218253492
ONEWEB-0113             
1 48050U 21025J   26168.16791830  .00000077  00000+0  17394-3 0  9995
2 48050  87.8957 320.1403 0001851  93.6188 266.5153 13.13893772253604
ONEWEB-0112             
1 48051U 21025K   26168.18587640  .00000218  00000+0  56158-3 0  9998
2 48051  87.8962 320.2087 0001816 104.7871 255.3459 13.13469636253595
ONEWEB-0156             
1 48052U 21025L   26168.11815794  .00000072  00000+0  16202-3 0  9990
2 48052  87.8961 320.2322 0001961  97.8659 262.2693 13.13469708253568
ONEWEB-0161             
1 48053U 21025M   26168.16894233  .00000215  00000+0  55305-3 0  9997
2 48053  87.8960 320.2235 0001990  99.7032 260.4322 13.13471192253502
ONEWEB-0158             
1 48054U 21025N   26168.12831705 -.00000141  00000+0 -42212-3 0  9992
2 48054  87.8962 320.2285 0001592  95.4604 264.6706 13.13470844253624
ONEWEB-0157             
1 48055U 21025P   26168.15371422 -.00000166  00000+0 -48902-3 0  9990
2 48055  87.8957 320.2293 0002089 106.3433 253.7926 13.13469932253564
ONEWEB-0162             
1 48056U 21025Q   26168.12987086 -.00000163  00000+0 -48210-3 0  9996
2 48056  87.8958 320.2347 0001971  94.0561 266.0793 13.13469650253533
ONEWEB-0155             
1 48057U 21025R   26168.13677449 -.00000325  00000+0 -92380-3 0  9994
2 48057  87.8958 320.2295 0001832 102.3360 257.7974 13.13469943253670
ONEWEB-0149             
1 48058U 21025S   26168.15878988 -.00000057  00000+0 -19030-3 0  9991
2 48058  87.8961 320.2288 0002027  93.7300 266.4061 13.13470755253487
ONEWEB-0148             
1 48059U 21025T   26168.12154418  .00000042  00000+0  80216-4 0  9991
2 48059  87.8954 320.2431 0002415  92.6875 267.4531 13.13469604253604
ONEWEB-0160             
1 48060U 21025U   26168.13846354 -.00000304  00000+0 -86660-3 0  9992
2 48060  87.8953 320.2356 0001413  75.3683 284.7603 13.13470536253555
ONEWEB-0163             
1 48061U 21025V   26168.12322811 -.00000087  00000+0 -27184-3 0  9993
2 48061  87.8961 320.2332 0001994 103.9743 256.1608 13.13469981253671
